IRIDIUM 7 [-]           
1 24793U 97020B   24062.41421400  .00000583  00000+0  19771-3 0  9996
2 24793  86.4004  14.5198 0001956  90.0094 270.1326 14.35099491404217
IRIDIUM 5 [-]           
1 24795U 97020D   24062.15945082  .00003928  00000+0  38203-3 0  9993
2 24795  86.3912 299.8363 0125809  23.2809 337.4043 14.86412164415165
IRIDIUM 4 [-]           
1 24796U 97020E   24062.35018892  .00000669  00000+0  22373-3 0  9996
2 24796  86.4003  11.7400 0002086  83.6106 276.5328 14.36014147404736
IRIDIUM 914 [-]         
1 24836U 97030A   24062.38824103  .00000730  00000+0  22650-3 0  9992
2 24836  86.3966  21.7034 0002330  38.8581 321.2785 14.39851962539217
IRIDIUM 16 [-]          
1 24841U 97030F   24062.48589795  .00000685  00000+0  22121-3 0  9996
2 24841  86.4023  43.3618 0003153 129.4187 230.7290 14.37736094399203
IRIDIUM 911 [-]         
1 24842U 97030G   24062.49461839  .00000884  00000+0  24093-3 0  9997
2 24842  86.4449  42.5746 0012602 223.4340 136.5870 14.46327131406871
IRIDIUM 17 [-]          
1 24870U 97034B   24062.52682254  .00000565  00000+0  18488-3 0  9999
2 24870  86.3902  72.9892 0003782 101.9420 258.2201 14.36825854395839
IRIDIUM 920 [-]         
1 24871U 97034C   24062.46352131  .00000625  00000+0  19006-3 0  9995
2 24871  86.3943  53.3287 0011046 186.8244 173.2806 14.40551755398644
